NORAD_CAT_ID,OBJECT_NAME,OBJECT_TYPE,EPOCH,MEAN_MOTION,ECCENTRICITY,INCLINATION,RA_OF_ASC_NODE,ARG_OF_PERICENTER,MEAN_ANOMALY,BSTAR,MEAN_MOTION_DOT,MEAN_MOTION_DDOT,TLE_LINE0,TLE_LINE1,TLE_LINE2,SEMIMAJOR_AXIS,PERIOD,APOGEE,PERIGEE,DECAYED
55662.0,STARLINK-5479,PAYLOAD,2023-11-24 14:42:16,14.98327856,0.0003078,69.9995,112.7056,269.6132,90.4674,-9.7619e-06,-2.09e-06,0.0,0 STARLINK-5479,1 55662U 23021AL  23328.61268649 -.00000209  00000-0 -97619-5 0  9992,2 55662  69.9995 112.7056 0003078 269.6132  90.4674 14.98327856 44047,6950.2,96.107,574.204,569.925,0.0
55662.0,STARLINK-5479,PAYLOAD,2023-11-24 19:30:39,14.98333263,0.0003043,69.9996,112.2009,270.0353,90.0457,3.7033e-05,3.49e-06,0.0,0 STARLINK-5479,1 55662U 23021AL  23328.81296176  .00000349  00000-0  37033-4 0  9996,2 55662  69.9996 112.2009 0003043 270.0353  90.0457 14.98333263 44071,6950.183,96.107,574.163,569.933,0.0
55662.0,STARLINK-5479,PAYLOAD,2023-11-25 14:44:16,14.98330111,0.0002659,70.0006,110.1813,272.4108,87.6747,0.00012957,1.453e-05,0.0,0 STARLINK-5479,1 55662U 23021AL  23329.61408181  .00001453  00000-0  12957-3 0  9990,2 55662  70.0006 110.1813 0002659 272.4108  87.6747 14.98330111 44198,6950.193,96.107,573.906,570.209,0.0
55662.0,STARLINK-5479,PAYLOAD,2023-11-25 19:32:40,14.98334769,0.0002287,70.0016,109.6792,252.0002,108.0907,0.00015703,1.781e-05,0.0,0 STARLINK-5479,1 55662U 23021AL  23329.81435703  .00001781  00000-0  15703-3 0  9998,2 55662  70.0016 109.6792 0002287 252.0002 108.0907 14.98334769 44225,6950.178,96.107,573.633,570.454,0.0
55662.0,STARLINK-5479,PAYLOAD,2023-11-26 13:10:09,14.98336966,0.0002575,70.0014,107.8273,261.3476,98.7391,4.9878e-05,5.02e-06,0.0,0 STARLINK-5479,1 55662U 23021AL  23330.54871558  .00000502  00000-0  49878-4 0  9993,2 55662  70.0014 107.8273 0002575 261.3476  98.7391 14.98336966 44330,6950.171,96.107,573.826,570.247,0.0
55662.0,STARLINK-5479,PAYLOAD,2023-11-26 19:34:42,14.98322357,0.0002761,70.0015,107.1504,281.4942,78.5907,-6.704e-05,-8.93e-06,0.0,0 STARLINK-5479,1 55662U 23021AL  23330.81576972 -.00000893  00000-0 -67040-4 0  9991,2 55662  70.0015 107.1504 0002761 281.4942  78.5907 14.98322357 44078,6950.217,96.107,574.0,570.163,0.0
55662.0,STARLINK-5479,PAYLOAD,2023-11-27 14:48:19,14.98319688,0.0001914,70.0015,105.1332,268.8579,91.2361,2.4998e-06,-6.3e-07,0.0,0 STARLINK-5479,1 55662U 23021AL  23331.61688989 -.00000063  00000-0  24998-5 0  9996,2 55662  70.0015 105.1332 0001914 268.8579  91.2361 14.98319688 44494,6950.225,96.108,573.42,570.76,0.0
55662.0,STARLINK-5479,PAYLOAD,2023-11-27 18:00:35,14.98316293,0.0002302,70.0023,104.7966,298.8506,61.2422,0.0002915,3.386e-05,0.0,0 STARLINK-5479,1 55662U 23021AL  23331.75040721  .00003386  00000-0  29150-3 0  9990,2 55662  70.0023 104.7966 0002302 298.8506  61.2422 14.98316293 44210,6950.235,96.108,573.7,570.5,0.0
55662.0,STARLINK-5479,PAYLOAD,2023-11-28 11:38:03,14.98346087,0.0002445,70.0016,102.9463,245.0081,115.0824,-0.00025871,-3.18e-05,0.0,0 STARLINK-5479,1 55662U 23021AL  23332.48475976 -.00003180  00000-0 -25871-3 0  9995,2 55662  70.0016 102.9463 0002445 245.0081 115.0824 14.98346087 44324,6950.143,96.106,573.707,570.309,0.0
55662.0,STARLINK-5479,PAYLOAD,2023-11-28 14:50:19,14.98342224,0.0002387,70.0019,102.6098,238.2597,121.833,-0.00023561,-2.904e-05,0.0,0 STARLINK-5479,1 55662U 23021AL  23332.61828040 -.00002904  00000-0 -23561-3 0  9991,2 55662  70.0019 102.6098 0002387 238.2597 121.8330 14.98342224 44640,6950.155,96.106,573.679,570.361,0.0
55662.0,STARLINK-5479,PAYLOAD,2023-11-28 18:02:35,14.98333624,0.0002392,70.0013,102.2706,270.1335,89.955,7.7267e-05,8.29e-06,0.0,0 STARLINK-5479,1 55662U 23021AL  23332.75179896  .00000829  00000-0  77267-4 0  9999,2 55662  70.0013 102.2706 0002392 270.1335  89.9550 14.98333624 44661,6950.182,96.107,573.709,570.384,0.0
55662.0,STARLINK-5479,PAYLOAD,2023-11-29 14:52:20,14.98327767,0.0003111,70.0012,100.084,263.6295,96.451,8.3501e-05,9.03e-06,0.0,0 STARLINK-5479,1 55662U 23021AL  23333.61968161  .00000903  00000-0  83501-4 0  9997,2 55662  70.0012 100.0840 0003111 263.6295  96.4510 14.98327767 44791,6950.2,96.107,574.227,569.903,0.0
55662.0,STARLINK-5479,PAYLOAD,2023-11-29 18:04:36,14.9833412,0.0003066,70.0009,99.7468,280.2928,79.7885,0.0001515,1.715e-05,0.0,0 STARLINK-5479,1 55662U 23021AL  23333.75319779  .00001715  00000-0  15150-3 0  9993,2 55662  70.0009  99.7468 0003066 280.2928  79.7885 14.98334120 44514,6950.18,96.107,574.176,569.914,0.0
55662.0,STARLINK-5479,PAYLOAD,2023-11-30 11:42:05,14.98327806,0.0002721,70.003,97.8993,245.3721,114.7155,6.9076e-06,-1e-07,0.0,0 STARLINK-5479,1 55662U 23021AL  23334.48756449 -.00000010  00000-0  69076-5 0  9999,2 55662  70.0030  97.8993 0002721 245.3721 114.7155 14.98327806 44625,6950.2,96.107,573.956,570.174,0.0
55662.0,STARLINK-5479,PAYLOAD,2023-12-01 11:44:06,14.98332096,0.000304,70.0009,95.3703,262.4178,97.6636,3.866e-05,3.68e-06,0.0,0 STARLINK-5479,1 55662U 23021AL  23335.48896006  .00000368  00000-0  38660-4 0  9993,2 55662  70.0009  95.3703 0003040 262.4178  97.6636 14.98332096 44770,6950.186,96.107,574.164,569.939,0.0
55662.0,STARLINK-5479,PAYLOAD,2023-12-01 18:08:37,14.9833854,0.0002874,70.0015,94.7002,259.8136,100.2699,0.00010193,1.124e-05,0.0,0 STARLINK-5479,1 55662U 23021AL  23335.75599376  .00001124  00000-0  10193-3 0  9994,2 55662  70.0015  94.7002 0002874 259.8136 100.2699 14.98338540 44815,6950.166,96.106,574.029,570.034,0.0
55662.0,STARLINK-5479,PAYLOAD,2023-12-02 13:22:14,14.98337172,0.0003064,70.0007,92.6777,259.3483,100.7331,9.6554e-05,1.059e-05,0.0,0 STARLINK-5479,1 55662U 23021AL  23336.55710908  .00001059  00000-0  96554-4 0  9992,2 55662  70.0007  92.6777 0003064 259.3483 100.7331 14.98337172 45239,6950.171,96.107,574.165,569.906,0.0
55662.0,STARLINK-5479,PAYLOAD,2023-12-02 18:10:37,14.98361274,0.0002816,70.0008,92.1728,252.0929,107.9923,-0.00025692,-3.16e-05,0.0,0 STARLINK-5479,1 55662U 23021AL  23336.75738005 -.00003160  00000-0 -25692-3 0  9993,2 55662  70.0008  92.1728 0002816 252.0929 107.9923 14.98361274 44965,6950.096,96.105,573.918,570.004,0.0
55662.0,STARLINK-5479,PAYLOAD,2023-12-03 11:48:10,14.98304422,0.0002983,70.0008,90.321,266.8877,93.1941,-0.00030561,-3.735e-05,0.0,0 STARLINK-5479,1 55662U 23021AL  23337.49178395 -.00003735  00000-0 -30561-3 0  9994,2 55662  70.0008  90.3210 0002983 266.8877  93.1941 14.98304422 45072,6950.272,96.109,574.21,570.064,0.0
55662.0,STARLINK-5479,PAYLOAD,2023-12-03 13:24:18,14.9830032,0.0002459,70.0013,90.153,256.853,103.2355,-0.00026031,-3.195e-05,0.0,0 STARLINK-5479,1 55662U 23021AL  23337.55854626 -.00003195  00000-0 -26031-3 0  9996,2 55662  70.0013  90.1530 0002459 256.8530 103.2355 14.98300320 45383,6950.285,96.109,573.859,570.441,0.0
55662.0,STARLINK-5479,PAYLOAD,2023-12-04 11:50:10,14.983186,0.0002851,70.0019,87.7979,263.5324,96.551,-9.9588e-05,-1.281e-05,0.0,0 STARLINK-5479,1 55662U 23021AL  23338.49317873 -.00001281  00000-0 -99588-4 0  9990,2 55662  70.0019  87.7979 0002851 263.5324  96.5510 14.98318600 45220,6950.228,96.108,574.075,570.112,0.0
55662.0,STARLINK-5479,PAYLOAD,2023-12-04 13:26:18,14.98321431,0.0002805,70.0013,87.6285,260.308,99.7762,-7.7736e-05,-1.02e-05,0.0,0 STARLINK-5479,1 55662U 23021AL  23338.55993681 -.00001020  00000-0 -77736-4 0  9996,2 55662  70.0013  87.6285 0002805 260.3080  99.7762 14.98321431 45530,6950.219,96.108,574.034,570.135,0.0
55662.0,STARLINK-5479,PAYLOAD,2023-12-05 11:52:10,14.98320159,0.0002813,70.0017,85.2717,259.83,100.2541,0.00036294,4.239e-05,0.0,0 STARLINK-5479,1 55662U 23021AL  23339.49456957  .00004239  00000-0  36294-3 0  9996,2 55662  70.0017  85.2717 0002813 259.8300 100.2541 14.98320159 45376,6950.223,96.108,574.043,570.133,0.0
55662.0,STARLINK-5479,PAYLOAD,2023-12-05 13:28:18,14.98331046,0.0002675,70.0026,85.1048,259.3954,100.6903,0.0001693,1.928e-05,0.0,0 STARLINK-5479,1 55662U 23021AL  23339.56132826  .00001928  00000-0  16930-3 0  9997,2 55662  70.0026  85.1048 0002675 259.3954 100.6903 14.98331046 45685,6950.19,96.107,573.914,570.195,0.0
55662.0,STARLINK-5479,PAYLOAD,2023-12-05 16:40:34,14.98323827,0.0003014,70.0013,84.7666,268.0996,91.9818,0.00037634,4.4e-05,0.0,0 STARLINK-5479,1 55662U 23021AL  23339.69484751  .00004400  00000-0  37634-3 0  9990,2 55662  70.0013  84.7666 0003014 268.0996  91.9818 14.98323827 45701,6950.212,96.107,574.172,569.982,0.0
55662.0,STARLINK-5479,PAYLOAD,2023-12-06 11:54:11,14.98337003,0.0002903,70.0019,82.7482,263.1682,96.9147,0.00016591,1.888e-05,0.0,0 STARLINK-5479,1 55662U 23021AL  23340.49596279  .00001888  00000-0  16591-3 0  9995,2 55662  70.0019  82.7482 0002903 263.1682  96.9147 14.98337003 45526,6950.171,96.107,574.054,570.019,0.0
55662.0,STARLINK-5479,PAYLOAD,2023-12-06 13:30:19,14.9833719,0.0002986,70.0013,82.5788,265.3512,94.7306,0.00015435,1.749e-05,0.0,0 STARLINK-5479,1 55662U 23021AL  23340.56272310  .00001749  00000-0  15435-3 0  9992,2 55662  70.0013  82.5788 0002986 265.3512  94.7306 14.98337190 45838,6950.171,96.107,574.111,569.96,0.0
55662.0,STARLINK-5479,PAYLOAD,2023-12-07 11:56:12,14.98337579,0.0002784,70.0026,80.2245,257.5222,102.5626,-0.00010658,-1.365e-05,0.0,0 STARLINK-5479,1 55662U 23021AL  23341.49736443 -.00001365  00000-0 -10658-3 0  9995,2 55662  70.0026  80.2245 0002784 257.5222 102.5626 14.98337579 45678,6950.169,96.107,573.969,570.1,0.0
55662.0,STARLINK-5479,PAYLOAD,2023-12-07 13:32:20,14.98336473,0.0002842,70.002,80.0553,260.1163,99.9675,-0.00011423,-1.456e-05,0.0,0 STARLINK-5479,1 55662U 23021AL  23341.56412520 -.00001456  00000-0 -11423-3 0  9992,2 55662  70.0020  80.0553 0002842 260.1163  99.9675 14.98336473 45980,6950.173,96.107,574.013,570.063,0.0
55662.0,STARLINK-5479,PAYLOAD,2023-12-08 10:22:04,14.98353021,0.0003035,70.0005,77.8642,270.3176,89.7635,-0.00032559,-3.978e-05,0.0,0 STARLINK-5479,1 55662U 23021AL  23342.43199760 -.00003978  00000-0 -32559-3 0  9991,2 55662  70.0005  77.8642 0003035 270.3176  89.7635 14.98353021 45811,6950.122,96.106,574.096,569.877,0.0
